[{"OBJECT_NAME":"CONNECTA T1.2","OBJECT_ID":"2023-001D","EPOCH":"2026-03-09T17:19:18.981408","MEAN_MOTION":15.44466747,"ECCENTRICITY":0.00081044,"INCLINATION":97.3381,"RA_OF_ASC_NODE":138.0701,"ARG_OF_PERICENTER":103.5122,"MEAN_ANOMALY":256.703,"EPHEMERIS_TYPE":0,"CLASSIFICATION_TYPE":"U","NORAD_CAT_ID":55012,"ELEMENT_SET_NO":999,"REV_AT_EPOCH":17716,"BSTAR":0.00042958738,"MEAN_MOTION_DOT":0.00019849,"MEAN_MOTION_DDOT":0},{"OBJECT_NAME":"STARLINK-36329","OBJECT_ID":"2026-026U","EPOCH":"2026-03-09T22:00:01.999584","MEAN_MOTION":15.50051843,"ECCENTRICITY":0.00015691,"INCLINATION":97.2841,"RA_OF_ASC_NODE":123.562,"ARG_OF_PERICENTER":77.7397,"MEAN_ANOMALY":270.0665,"EPHEMERIS_TYPE":0,"CLASSIFICATION_TYPE":"U","NORAD_CAT_ID":67739,"ELEMENT_SET_NO":999,"REV_AT_EPOCH":535,"BSTAR":-0.037726125,"MEAN_MOTION_DOT":-0.0186882,"MEAN_MOTION_DDOT":0}]
